STARLINK-5298           
1 55281U 23010N   26178.89213076  .00001173  00000+0  10606-3 0  9994
2 55281  69.9999 126.5769 0003486 271.5380  88.5380 14.98327226189281
STARLINK-5330           
1 55282U 23010P   26178.86725145  .00000285  00000+0  31682-4 0  9998
2 55282  69.9993 126.4870 0003722 262.5965  97.4771 14.98329586189284
STARLINK-5317           
1 55283U 23010Q   26178.88795706  .00000129  00000+0  18628-4 0  9993
2 55283  69.9999 126.5627 0002900 266.7985  93.2842 14.98331184189287
STARLINK-5337           
1 55284U 23010R   26178.86710530 -.00002591  00000+0 -20955-3 0  9996
2 55284  69.9994 126.4859 0003807 255.7055 104.3681 14.98308763189273
STARLINK-5332           
1 55285U 23010S   26178.97527314  .00003638  00000+0  31238-3 0  9992
2 55285  69.9993  86.3086 0002931 267.7630  92.3193 14.98344792191165
STARLINK-5338           
1 55286U 23010T   26178.88353974  .00002537  00000+0  22012-3 0  9999
2 55286  69.9998 106.6788 0003403 261.3068  98.7705 14.98362909189779
STARLINK-5341           
1 55287U 23010U   26178.89168132 -.00000128  00000+0 -29427-5 0  9996
2 55287  70.0000  86.7451 0003205 263.0419  97.0375 14.98329885190268
STARLINK-5311           
1 55288U 23010V   26178.87121396  .00000060  00000+0  12853-4 0  9993
2 55288  69.9998 106.6340 0003149 260.0860  99.9944 14.98324970189772
STARLINK-5320           
1 55289U 23010W   26178.88773416 -.00000013  00000+0  67056-5 0  9996
2 55289  69.9999 106.6941 0003040 266.1410  93.9402 14.98332366189770
STARLINK-5266           
1 55290U 23010X   26178.87938709  .00000139  00000+0  19487-4 0  9997
2 55290  69.9997 106.6633 0003272 259.4015 100.6776 14.98330890189771
STARLINK-5327           
1 55291U 23010Y   26178.89608426  .00000003  00000+0  80396-5 0  9998
2 55291  70.0001 106.7218 0003097 265.1098  94.9708 14.98331189189773
STARLINK-5325           
1 55292U 23010Z   26178.86685068  .00001807  00000+0  15919-3 0  9993
2 55292  69.9997 106.6188 0003018 268.6574  91.4239 14.98342414189774
STARLINK-5287           
1 55293U 23010AA  26178.87103802 -.00001035  00000+0 -78937-4 0  9991
2 55293  69.9999 106.6347 0003000 270.9063  89.1752 14.98322915189772
STARLINK-5286           
1 55294U 23010AB  26178.87545381 -.00001877  00000+0 -14959-3 0  9991
2 55294  69.9995 126.5151 0003577 265.0755  94.9996 14.98326196189280
STARLINK-5293           
1 55295U 23010AC  26178.85041729 -.00000233  00000+0 -11722-4 0  9998
2 55295  69.9998 126.8329 0003615 263.2862  96.7885 14.98329173189281
STARLINK-5285           
1 55296U 23010AD  26178.85434155 -.00000100  00000+0 -59070-6 0  9991
2 55296  70.0001 106.5757 0003011 265.0789  95.0026 14.98331529190658
STARLINK-5284           
1 55297U 23010AE  26178.86269876 -.00000406  00000+0 -26254-4 0  9994
2 55297  70.0000 106.6053 0002935 269.3648  90.7175 14.98326374189773
STARLINK-5270           
1 55299U 23010AG  26178.85016841  .00000298  00000+0  32800-4 0  9998
2 55299  70.0000 106.5631 0003158 266.4551  93.6247 14.98326739190651
STARLINK-5308           
1 55300U 23010AH  26178.91275803 -.00001075  00000+0 -82310-4 0  9990
2 55300  69.9999 106.3836 0002543 260.8535  99.2336 14.98334130189787
STARLINK-5321           
1 55302U 23010AK  26178.85853091 -.00000064  00000+0  24047-5 0  9996
2 55302  69.9995 106.5872 0003144 269.6192  90.4607 14.98322076189770
STARLINK-5322           
1 55303U 23010AL  26178.86291603  .00000028  00000+0  10139-4 0  9998
2 55303  69.9995 126.4719 0003185 266.2029  93.8766 14.98328203189286
STARLINK-5318           
1 55304U 23010AM  26178.90857645  .00001298  00000+0  11663-3 0  9990
2 55304  69.9996 106.3629 0003531 261.5082  98.5677 14.98320061189789
STARLINK-5316           
1 55305U 23010AN  26178.90443092  .00000294  00000+0  32414-4 0  9991
2 55305  69.9998 106.7536 0002816 270.3319  89.7518 14.98331618189785
STARLINK-5295           
1 55306U 23010AP  26178.94173797  .00001006  00000+0  92066-4 0  9999
2 55306  70.0002  86.6074 0003037 287.2050  72.8776 14.98337900190289
STARLINK-5288           
1 55307U 23010AQ  26178.87916423 -.00000032  00000+0  51042-5 0  9992
2 55307  70.0001  86.7903 0002876 265.6452  94.4378 14.98330697190270
STARLINK-5315           
1 55309U 23010AS  26178.89583341  .00000240  00000+0  27886-4 0  9993
2 55309  70.0000  86.4469 0002919 271.2072  88.8753 14.98330595190286
STARLINK-5309           
1 55310U 23010AT  26178.86664230 -.00000063  00000+0  24999-5 0  9996
2 55310  70.0005  86.7454 0002924 267.6225  92.4599 14.98327725190274
STARLINK-5312           
1 55311U 23010AU  26178.87083572  .00001429  00000+0  12762-3 0  9991
2 55311  70.0001  86.7599 0002788 273.4468  86.6372 14.98315153191146
STARLINK-5296           
1 55312U 23010AV  26178.90834843  .00000163  00000+0  21483-4 0  9996
2 55312  70.0000  86.3769 0002837 270.4876  89.5958 14.98330957191136
STARLINK-5313           
1 55313U 23010AW  26178.99181127  .00000152  00000+0  20558-4 0  9996
2 55313  70.0000  86.3791 0002884 269.3649  90.7180 14.98331169191169
