OBJECT_NAME,OBJECT_ID,EPOCH,MEAN_MOTION,ECCENTRICITY,INCLINATION,RA_OF_ASC_NODE,ARG_OF_PERICENTER,MEAN_ANOMALY,EPHEMERIS_TYPE,CLASSIFICATION_TYPE,NORAD_CAT_ID,ELEMENT_SET_NO,REV_AT_EPOCH,BSTAR,MEAN_MOTION_DOT,MEAN_MOTION_DDOT
STARLINK-5298,2023-010N,2026-06-27T21:24:40.097664,14.98327226,.00034862,69.9999,126.5769,271.5380,88.5380,0,U,55281,999,18928,.10605643E-3,.1173E-4,0
STARLINK-5330,2023-010P,2026-06-27T20:48:50.525280,14.98329586,.0003722,69.9993,126.4870,262.5965,97.4771,0,U,55282,999,18928,.31682025E-4,.285E-5,0
STARLINK-5317,2023-010Q,2026-06-27T21:18:39.489984,14.98331184,.00029002,69.9999,126.5627,266.7985,93.2842,0,U,55283,999,18928,.18627667E-4,.129E-5,0
STARLINK-5337,2023-010R,2026-06-27T20:48:37.897920,14.98308763,.00038078,69.9994,126.4859,255.7055,104.3681,0,U,55284,999,18927,-.20954819E-3,-.2591E-4,0
STARLINK-5332,2023-010S,2026-06-27T23:24:23.599296,14.98344792,.00029319,69.9993,86.3086,267.7630,92.3193,0,U,55285,999,19116,.31238252E-3,.3638E-4,0
STARLINK-5338,2023-010T,2026-06-27T21:12:17.833536,14.98362909,.00034035,69.9998,106.6788,261.3068,98.7705,0,U,55286,999,18977,.22011728E-3,.2537E-4,0
STARLINK-5341,2023-010U,2026-06-27T21:24:01.266048,14.98329885,.00032057,70.0000,86.7451,263.0419,97.0375,0,U,55287,999,19026,-.2942746E-5,-.128E-5,0
STARLINK-5311,2023-010V,2026-06-27T20:54:32.886144,14.98324970,.00031498,69.9998,106.6340,260.0860,99.9944,0,U,55288,999,18977,.1285315E-4,.6E-6,0
STARLINK-5320,2023-010W,2026-06-27T21:18:20.231424,14.98332366,.00030404,69.9999,106.6941,266.1410,93.9402,0,U,55289,999,18977,.6705578E-5,-.13E-6,0
STARLINK-5266,2023-010X,2026-06-27T21:06:19.044576,14.98330890,.00032727,69.9997,106.6633,259.4015,100.6776,0,U,55290,999,18977,.19487479E-4,.139E-5,0
STARLINK-5327,2023-010Y,2026-06-27T21:30:21.680064,14.98331189,.00030978,70.0001,106.7218,265.1098,94.9708,0,U,55291,999,18977,.8039602E-5,.3E-7,0
STARLINK-5325,2023-010Z,2026-06-27T20:48:15.898752,14.98342414,.00030189,69.9997,106.6188,268.6574,91.4239,0,U,55292,999,18977,.15918715E-3,.1807E-4,0
STARLINK-5287,2023-010AA,2026-06-27T20:54:17.684928,14.98322915,.00030009,69.9999,106.6347,270.9063,89.1752,0,U,55293,999,18977,-.7893721E-4,-.1035E-4,0
STARLINK-5286,2023-010AB,2026-06-27T21:00:39.209184,14.98326196,.0003577,69.9995,126.5151,265.0755,94.9996,0,U,55294,999,18928,-.14958903E-3,-.1877E-4,0
STARLINK-5293,2023-010AC,2026-06-27T20:24:36.053856,14.98329173,.00036152,69.9998,126.8329,263.2862,96.7885,0,U,55295,999,18928,-.11722026E-4,-.233E-5,0
STARLINK-5285,2023-010AD,2026-06-27T20:30:15.109920,14.98331529,.00030116,70.0001,106.5757,265.0789,95.0026,0,U,55296,999,19065,-.590704E-6,-.1E-5,0
STARLINK-5284,2023-010AE,2026-06-27T20:42:17.172864,14.98326374,.00029353,70.0000,106.6053,269.3648,90.7175,0,U,55297,999,18977,-.26253855E-4,-.406E-5,0
STARLINK-5270,2023-010AG,2026-06-27T20:24:14.550624,14.98326739,.00031588,70.0000,106.5631,266.4551,93.6247,0,U,55299,999,19065,.32800011E-4,.298E-5,0
STARLINK-5308,2023-010AH,2026-06-27T21:54:22.293792,14.98334130,.00025436,69.9999,106.3836,260.8535,99.2336,0,U,55300,999,18978,-.8230986E-4,-.1075E-4,0
STARLINK-5321,2023-010AK,2026-06-27T20:36:17.070624,14.98322076,.0003144,69.9995,106.5872,269.6192,90.4607,0,U,55302,999,18977,.2404704E-5,-.64E-6,0
STARLINK-5322,2023-010AL,2026-06-27T20:42:35.944992,14.98328203,.00031853,69.9995,126.4719,266.2029,93.8766,0,U,55303,999,18928,.10139163E-4,.28E-6,0
STARLINK-5318,2023-010AM,2026-06-27T21:48:21.005280,14.98320061,.00035318,69.9996,106.3629,261.5082,98.5677,0,U,55304,999,18978,.11663081E-3,.1298E-4,0
STARLINK-5316,2023-010AN,2026-06-27T21:42:22.831488,14.98331618,.00028163,69.9998,106.7536,270.3319,89.7518,0,U,55305,999,18978,.32414413E-4,.294E-5,0
STARLINK-5295,2023-010AP,2026-06-27T22:36:06.160608,14.98337900,.00030374,70.0002,86.6074,287.2050,72.8776,0,U,55306,999,19028,.92066272E-4,.1006E-4,0
STARLINK-5288,2023-010AQ,2026-06-27T21:05:59.789472,14.98330697,.00028764,70.0001,86.7903,265.6452,94.4378,0,U,55307,999,19027,.510419E-5,-.32E-6,0
STARLINK-5315,2023-010AS,2026-06-27T21:30:00.006624,14.98330595,.00029198,70.0000,86.4469,271.2072,88.8753,0,U,55309,999,19028,.27885907E-4,.24E-5,0
STARLINK-5309,2023-010AT,2026-06-27T20:47:57.894720,14.98327725,.00029243,70.0005,86.7454,267.6225,92.4599,0,U,55310,999,19027,.2499885E-5,-.63E-6,0
STARLINK-5312,2023-010AU,2026-06-27T20:54:00.206208,14.98315153,.00027886,70.0001,86.7599,273.4468,86.6372,0,U,55311,999,19114,.12761641E-3,.1429E-4,0
STARLINK-5296,2023-010AV,2026-06-27T21:48:01.304352,14.98330957,.00028375,70.0000,86.3769,270.4876,89.5958,0,U,55312,999,19113,.21483219E-4,.163E-5,0
STARLINK-5313,2023-010AW,2026-06-27T23:48:12.493728,14.98331169,.00028846,70.0000,86.3791,269.3649,90.7180,0,U,55313,999,19116,.20558372E-4,.152E-5,0
